[{"OBJECT_NAME":"LEMUR-2-THERMORAPTOR","OBJECT_ID":"2025-061D","EPOCH":"2026-03-09T21:59:50.013312","MEAN_MOTION":15.13256334,"ECCENTRICITY":0.00176188,"INCLINATION":97.562,"RA_OF_ASC_NODE":45.6468,"ARG_OF_PERICENTER":235.5571,"MEAN_ANOMALY":124.3996,"EPHEMERIS_TYPE":0,"CLASSIFICATION_TYPE":"U","NORAD_CAT_ID":63354,"ELEMENT_SET_NO":999,"REV_AT_EPOCH":5259,"BSTAR":0.00030402789,"MEAN_MOTION_DOT":5.359e-5,"MEAN_MOTION_DDOT":0},{"OBJECT_NAME":"ZHANGHENG 1-02 (CSES-2)","OBJECT_ID":"2025-128A","EPOCH":"2026-03-07T17:41:43.439712","MEAN_MOTION":15.21023059,"ECCENTRICITY":0.00142277,"INCLINATION":97.3434,"RA_OF_ASC_NODE":195.9568,"ARG_OF_PERICENTER":108.2865,"MEAN_ANOMALY":251.992,"EPHEMERIS_TYPE":0,"CLASSIFICATION_TYPE":"U","NORAD_CAT_ID":64393,"ELEMENT_SET_NO":999,"REV_AT_EPOCH":4050,"BSTAR":1.646985e-6,"MEAN_MOTION_DOT":-3.1e-7,"MEAN_MOTION_DDOT":0}]
